TEVEL2-7                
1 63238U 25052AE  26068.66113295  .00019244  00000+0  69668-3 0  9998
2 63238  97.4054 324.3041 0008105 124.6830 235.5175 15.28414096 54803
STARLINK-35545          
1 66109U 25236Z   26068.48490258  .00029319  00000+0  99838-3 0  9995
2 66109  53.1600 104.7940 0001675  77.2050 282.9138 15.30191407 22912
